[{"OBJECT_NAME":"ONEWEB-0311","OBJECT_ID":"2021-075Y","EPOCH":"2026-03-03T20:21:31.378176","MEAN_MOTION":13.17650137,"ECCENTRICITY":0.0001835,"INCLINATION":87.9149,"RA_OF_ASC_NODE":26.7743,"ARG_OF_PERICENTER":67.9189,"MEAN_ANOMALY":292.2137,"EPHEMERIS_TYPE":0,"CLASSIFICATION_TYPE":"U","NORAD_CAT_ID":49097,"ELEMENT_SET_NO":999,"REV_AT_EPOCH":21975,"BSTAR":0.00040232,"MEAN_MOTION_DOT":1.69e-6,"MEAN_MOTION_DDOT":0},{"OBJECT_NAME":"ONEWEB-0312","OBJECT_ID":"2021-075Z","EPOCH":"2026-03-03T20:43:21.741312","MEAN_MOTION":13.17649061,"ECCENTRICITY":0.000213,"INCLINATION":87.9139,"RA_OF_ASC_NODE":26.7897,"ARG_OF_PERICENTER":75.192,"MEAN_ANOMALY":284.9448,"EPHEMERIS_TYPE":0,"CLASSIFICATION_TYPE":"U","NORAD_CAT_ID":49098,"ELEMENT_SET_NO":999,"REV_AT_EPOCH":21973,"BSTAR":-6.1913e-5,"MEAN_MOTION_DOT":-1.1e-7,"MEAN_MOTION_DDOT":0},{"OBJECT_NAME":"ONEWEB-0313","OBJECT_ID":"2021-075AA","EPOCH":"2026-03-03T19:01:06.924864","MEAN_MOTION":13.1764916,"ECCENTRICITY":0.0001897,"INCLINATION":87.9139,"RA_OF_ASC_NODE":26.8101,"ARG_OF_PERICENTER":77.233,"MEAN_ANOMALY":282.9013,"EPHEMERIS_TYPE":0,"CLASSIFICATION_TYPE":"U","NORAD_CAT_ID":49099,"ELEMENT_SET_NO":999,"REV_AT_EPOCH":21971,"BSTAR":0.00019448,"MEAN_MOTION_DOT":8.8e-7,"MEAN_MOTION_DDOT":0},{"OBJECT_NAME":"ONEWEB-0314","OBJECT_ID":"2021-075AB","EPOCH":"2026-03-03T20:02:03.125760","MEAN_MOTION":13.17649852,"ECCENTRICITY":0.0002142,"INCLINATION":87.915,"RA_OF_ASC_NODE":26.7641,"ARG_OF_PERICENTER":73.5085,"MEAN_ANOMALY":286.6282,"EPHEMERIS_TYPE":0,"CLASSIFICATION_TYPE":"U","NORAD_CAT_ID":49100,"ELEMENT_SET_NO":999,"REV_AT_EPOCH":21969,"BSTAR":0.00022373,"MEAN_MOTION_DOT":1.0e-6,"MEAN_MOTION_DDOT":0},{"OBJECT_NAME":"ONEWEB-0315","OBJECT_ID":"2021-075AC","EPOCH":"2026-03-03T20:22:11.745984","MEAN_MOTION":13.12441684,"ECCENTRICITY":0.0001673,"INCLINATION":87.8998,"RA_OF_ASC_NODE":11.5487,"ARG_OF_PERICENTER":68.7048,"MEAN_ANOMALY":291.4259,"EPHEMERIS_TYPE":0,"CLASSIFICATION_TYPE":"U","NORAD_CAT_ID":49101,"ELEMENT_SET_NO":999,"REV_AT_EPOCH":22135,"BSTAR":0.0011246,"MEAN_MOTION_DOT":4.17e-6,"MEAN_MOTION_DDOT":0},{"OBJECT_NAME":"ONEWEB-0316","OBJECT_ID":"2021-075AD","EPOCH":"2026-03-03T20:12:53.209728","MEAN_MOTION":13.18684028,"ECCENTRICITY":0.000179,"INCLINATION":87.9241,"RA_OF_ASC_NODE":356.3826,"ARG_OF_PERICENTER":76.6991,"MEAN_ANOMALY":283.4341,"EPHEMERIS_TYPE":0,"CLASSIFICATION_TYPE":"U","NORAD_CAT_ID":49102,"ELEMENT_SET_NO":999,"REV_AT_EPOCH":22332,"BSTAR":0.00010107,"MEAN_MOTION_DOT":5.3e-7,"MEAN_MOTION_DDOT":0},{"OBJECT_NAME":"ONEWEB-0317","OBJECT_ID":"2021-075AE","EPOCH":"2026-03-03T20:27:04.998816","MEAN_MOTION":13.12441666,"ECCENTRICITY":0.0002352,"INCLINATION":87.9001,"RA_OF_ASC_NODE":11.5698,"ARG_OF_PERICENTER":98.176,"MEAN_ANOMALY":261.9636,"EPHEMERIS_TYPE":0,"CLASSIFICATION_TYPE":"U","NORAD_CAT_ID":49103,"ELEMENT_SET_NO":999,"REV_AT_EPOCH":22137,"BSTAR":0.00084148,"MEAN_MOTION_DOT":3.15e-6,"MEAN_MOTION_DDOT":0},{"OBJECT_NAME":"ONEWEB-0318","OBJECT_ID":"2021-075AF","EPOCH":"2026-03-03T20:08:09.268224","MEAN_MOTION":13.18685276,"ECCENTRICITY":0.0001728,"INCLINATION":87.925,"RA_OF_ASC_NODE":356.3753,"ARG_OF_PERICENTER":70.3971,"MEAN_ANOMALY":289.7348,"EPHEMERIS_TYPE":0,"CLASSIFICATION_TYPE":"U","NORAD_CAT_ID":49104,"ELEMENT_SET_NO":999,"REV_AT_EPOCH":22328,"BSTAR":-0.00031416,"MEAN_MOTION_DOT":-1.11e-6,"MEAN_MOTION_DDOT":0},{"OBJECT_NAME":"ONEWEB-0319","OBJECT_ID":"2021-075AG","EPOCH":"2026-03-03T20:23:55.636800","MEAN_MOTION":13.17649161,"ECCENTRICITY":0.000162,"INCLINATION":87.9141,"RA_OF_ASC_NODE":26.7866,"ARG_OF_PERICENTER":64.4013,"MEAN_ANOMALY":295.7286,"EPHEMERIS_TYPE":0,"CLASSIFICATION_TYPE":"U","NORAD_CAT_ID":49105,"ELEMENT_SET_NO":999,"REV_AT_EPOCH":21973,"BSTAR":-6.4717e-5,"MEAN_MOTION_DOT":-1.2e-7,"MEAN_MOTION_DDOT":0},{"OBJECT_NAME":"ONEWEB-0323","OBJECT_ID":"2021-075AH","EPOCH":"2026-03-03T20:00:14.334336","MEAN_MOTION":13.12443142,"ECCENTRICITY":0.0001939,"INCLINATION":87.8999,"RA_OF_ASC_NODE":11.5557,"ARG_OF_PERICENTER":59.8111,"MEAN_ANOMALY":300.3209,"EPHEMERIS_TYPE":0,"CLASSIFICATION_TYPE":"U","NORAD_CAT_ID":49106,"ELEMENT_SET_NO":999,"REV_AT_EPOCH":22073,"BSTAR":0.0010822,"MEAN_MOTION_DOT":4.02e-6,"MEAN_MOTION_DDOT":0},{"OBJECT_NAME":"ONEWEB-0329","OBJECT_ID":"2021-075AJ","EPOCH":"2026-03-03T09:39:58.722336","MEAN_MOTION":13.17648806,"ECCENTRICITY":0.00019614,"INCLINATION":87.9138,"RA_OF_ASC_NODE":26.8759,"ARG_OF_PERICENTER":77.9415,"MEAN_ANOMALY":282.1936,"EPHEMERIS_TYPE":0,"CLASSIFICATION_TYPE":"U","NORAD_CAT_ID":49107,"ELEMENT_SET_NO":999,"REV_AT_EPOCH":21965,"BSTAR":9.6006777e-5,"MEAN_MOTION_DOT":5.0e-7,"MEAN_MOTION_DDOT":0},{"OBJECT_NAME":"ONEWEB-0330","OBJECT_ID":"2021-075AK","EPOCH":"2026-03-03T20:37:17.917824","MEAN_MOTION":13.17647808,"ECCENTRICITY":0.000212,"INCLINATION":87.914,"RA_OF_ASC_NODE":26.7929,"ARG_OF_PERICENTER":80.3188,"MEAN_ANOMALY":279.8183,"EPHEMERIS_TYPE":0,"CLASSIFICATION_TYPE":"U","NORAD_CAT_ID":49108,"ELEMENT_SET_NO":999,"REV_AT_EPOCH":21975,"BSTAR":5.8403e-6,"MEAN_MOTION_DOT":1.5e-7,"MEAN_MOTION_DDOT":0},{"OBJECT_NAME":"ONEWEB-0292","OBJECT_ID":"2021-083A","EPOCH":"2026-03-03T19:29:12.359040","MEAN_MOTION":13.13472501,"ECCENTRICITY":0.0001635,"INCLINATION":87.9031,"RA_OF_ASC_NODE":341.2077,"ARG_OF_PERICENTER":72.3711,"MEAN_ANOMALY":287.7596,"EPHEMERIS_TYPE":0,"CLASSIFICATION_TYPE":"U","NORAD_CAT_ID":49186,"ELEMENT_SET_NO":999,"REV_AT_EPOCH":21709,"BSTAR":-0.00037904,"MEAN_MOTION_DOT":-1.26e-6,"MEAN_MOTION_DDOT":0},{"OBJECT_NAME":"ONEWEB-0303","OBJECT_ID":"2021-083B","EPOCH":"2026-03-03T20:03:25.046784","MEAN_MOTION":13.18685927,"ECCENTRICITY":0.0001771,"INCLINATION":87.9252,"RA_OF_ASC_NODE":356.3785,"ARG_OF_PERICENTER":73.0408,"MEAN_ANOMALY":287.0918,"EPHEMERIS_TYPE":0,"CLASSIFICATION_TYPE":"U","NORAD_CAT_ID":49187,"ELEMENT_SET_NO":999,"REV_AT_EPOCH":21609,"BSTAR":9.5529e-5,"MEAN_MOTION_DOT":5.1e-7,"MEAN_MOTION_DDOT":0},{"OBJECT_NAME":"ONEWEB-0306","OBJECT_ID":"2021-083C","EPOCH":"2026-03-03T19:49:09.826752","MEAN_MOTION":13.18686039,"ECCENTRICITY":0.0001925,"INCLINATION":87.925,"RA_OF_ASC_NODE":356.3638,"ARG_OF_PERICENTER":85.0707,"MEAN_ANOMALY":275.0645,"EPHEMERIS_TYPE":0,"CLASSIFICATION_TYPE":"U","NORAD_CAT_ID":49188,"ELEMENT_SET_NO":999,"REV_AT_EPOCH":21613,"BSTAR":9.1246e-5,"MEAN_MOTION_DOT":4.9e-7,"MEAN_MOTION_DDOT":0},{"OBJECT_NAME":"ONEWEB-0307","OBJECT_ID":"2021-083D","EPOCH":"2026-03-03T19:20:39.960384","MEAN_MOTION":13.1346936,"ECCENTRICITY":0.0001764,"INCLINATION":87.903,"RA_OF_ASC_NODE":341.1979,"ARG_OF_PERICENTER":77.7335,"MEAN_ANOMALY":282.3991,"EPHEMERIS_TYPE":0,"CLASSIFICATION_TYPE":"U","NORAD_CAT_ID":49189,"ELEMENT_SET_NO":999,"REV_AT_EPOCH":21709,"BSTAR":-0.00066153,"MEAN_MOTION_DOT":-2.29e-6,"MEAN_MOTION_DDOT":0},{"OBJECT_NAME":"ONEWEB-0320","OBJECT_ID":"2021-083E","EPOCH":"2026-03-03T20:06:12.250656","MEAN_MOTION":13.18131902,"ECCENTRICITY":0.0001853,"INCLINATION":87.924,"RA_OF_ASC_NODE":356.3869,"ARG_OF_PERICENTER":78.8735,"MEAN_ANOMALY":281.2605,"EPHEMERIS_TYPE":0,"CLASSIFICATION_TYPE":"U","NORAD_CAT_ID":49190,"ELEMENT_SET_NO":999,"REV_AT_EPOCH":21609,"BSTAR":4.4789e-5,"MEAN_MOTION_DOT":3.0e-7,"MEAN_MOTION_DDOT":0}]
