ONEWEB-0311             
1 49097U 21075Y   26062.84827984  .00000169  00000+0  40232-3 0  9999
2 49097  87.9149  26.7743 0001835  67.9189 292.2137 13.17650137219759
ONEWEB-0312             
1 49098U 21075Z   26062.86344608 -.00000011  00000+0 -61913-4 0  9997
2 49098  87.9139  26.7897 0002130  75.1920 284.9448 13.17649061219737
ONEWEB-0313             
1 49099U 21075AA  26062.79244127  .00000088  00000+0  19448-3 0  9992
2 49099  87.9139  26.8101 0001896  77.2330 282.9013 13.17649160219717
ONEWEB-0314             
1 49100U 21075AB  26062.83475841  .00000100  00000+0  22373-3 0  9995
2 49100  87.9150  26.7641 0002142  73.5085 286.6282 13.17649852219696
ONEWEB-0315             
1 49101U 21075AC  26062.84874707  .00000417  00000+0  11246-2 0  9998
2 49101  87.8998  11.5487 0001673  68.7048 291.4259 13.12441684221351
ONEWEB-0316             
1 49102U 21075AD  26062.84228252  .00000053  00000+0  10107-3 0  9999
2 49102  87.9241 356.3826 0001789  76.6991 283.4341 13.18684028223323
ONEWEB-0317             
1 49103U 21075AE  26062.85214119  .00000315  00000+0  84148-3 0  9995
2 49103  87.9001  11.5698 0002352  98.1760 261.9636 13.12441666221379
ONEWEB-0318             
1 49104U 21075AF  26062.83899616 -.00000111  00000+0 -31416-3 0  9991
2 49104  87.9250 356.3753 0001727  70.3971 289.7348 13.18685276223282
ONEWEB-0319             
1 49105U 21075AG  26062.84994951 -.00000012  00000+0 -64717-4 0  9992
2 49105  87.9141  26.7866 0001620  64.4013 295.7286 13.17649161219733
ONEWEB-0323             
1 49106U 21075AH  26062.83349924  .00000402  00000+0  10822-2 0  9993
2 49106  87.8999  11.5557 0001938  59.8111 300.3209 13.12443142220738
ONEWEB-0329             
1 49107U 21075AJ  26062.40276299  .00000050  00000+0  96007-4 0  9991
2 49107  87.9138  26.8759 0001961  77.9415 282.1936 13.17648806219654
ONEWEB-0330             
1 49108U 21075AK  26062.85923517  .00000015  00000+0  58403-5 0  9993
2 49108  87.9140  26.7929 0002119  80.3188 279.8183 13.17647808219756
ONEWEB-0292             
1 49186U 21083A   26062.81194861 -.00000126  00000+0 -37904-3 0  9992
2 49186  87.9031 341.2077 0001634  72.3711 287.7596 13.13472501217097
ONEWEB-0303             
1 49187U 21083B   26062.83570657  .00000051  00000+0  95529-4 0  9999
2 49187  87.9252 356.3785 0001770  73.0408 287.0918 13.18685927216091
ONEWEB-0306             
1 49188U 21083C   26062.82580819  .00000049  00000+0  91246-4 0  9999
2 49188  87.9250 356.3638 0001924  85.0707 275.0645 13.18686039216137
ONEWEB-0307             
1 49189U 21083D   26062.80601806 -.00000229  00000+0 -66153-3 0  9998
2 49189  87.9030 341.1979 0001764  77.7335 282.3991 13.13469360217093
ONEWEB-0320             
1 49190U 21083E   26062.83764180  .00000030  00000+0  44789-4 0  9998
2 49190  87.9240 356.3869 0001852  78.8735 281.2605 13.18131902216090
